     2.11           N: GPS NAV DATA                         RINEX VERSION / TYPE
teqc  2019Feb25                         20221121 12:27:15UTCPGM / RUN BY / DATE
OSX ker:10.11.6|Core i5|gcc 4.3 -m64|OSX ker:10.10+|=+      COMMENT
    7.4506D-09  1.4901D-08 -5.9605D-08 -1.1921D-07          ION ALPHA
    7.9872D+04  1.6384D+04 -1.3107D+05 -1.3107D+05          ION BETA
    9.313225746155D-10-3.552713678801D-15    61440     1549 DELTA-UTC: A0,A1,T,W
                                                            END OF HEADER
 6 09  9 13 16  0  0.0 2.383240498602D-04 6.593836587854D-12 0.000000000000D+00
    1.060000000000D+02-1.237500000000D+01 5.283077204228D-09 1.966745370245D+00
   -6.780028343201D-07 5.846075015143D-03 8.607283234596D-06 5.153694900513D+03
    5.760000000000D+04 5.587935447693D-08 2.788750368269D+00-1.676380634308D-08
    9.343417180772D-01 1.924062500000D+02-1.256954627011D+00-8.203555996750D-09
    2.046513816944D-10 1.000000000000D+00 1.549000000000D+03 0.000000000000D+00
    2.000000000000D+00 0.000000000000D+00-5.122274160385D-09 1.060000000000D+02
    5.365200000000D+04 4.000000000000D+00
21 09  9 13 15 59 44.0-8.947215974331D-06-2.273736754432D-12 0.000000000000D+00
    6.000000000000D+00 1.025000000000D+01 5.279505626887D-09-2.747578948355D+00
    3.892928361893D-07 1.556036539841D-02 6.753951311111D-06 5.153751220703D+03
    5.758400000000D+04-4.284083843231D-08-2.383571969226D+00-2.924352884293D-07
    9.335742610124D-01 2.330000000000D+02-2.559072055737D+00-8.210699151434D-09
   -1.689356082747D-10 1.000000000000D+00 1.549000000000D+03 0.000000000000D+00
    2.000000000000D+00 0.000000000000D+00-1.210719347000D-08 6.000000000000D+00
    5.365200000000D+04 4.000000000000D+00
10 09  9 13 16  0  0.0-2.347817644477D-05-9.094947017729D-13 0.000000000000D+00
    7.800000000000D+01 4.415625000000D+01 4.348038256103D-09 9.268267503286D-01
    2.507120370865D-06 8.612679783255D-03 9.777024388313D-06 5.153670196533D+03
    5.760000000000D+04-2.104789018631D-07-1.328898388283D+00 8.940696716309D-08
    9.564959154027D-01 1.892187500000D+02 6.264201873609D-01-7.978903781941D-09
   -4.657336853917D-10 1.000000000000D+00 1.549000000000D+03 0.000000000000D+00
    2.000000000000D+00 0.000000000000D+00-2.793967723846D-09 7.800000000000D+01
    5.419200000000D+04 4.000000000000D+00
 3 09  9 13 16  0  0.0 4.466664977372D-04 5.115907697473D-12 0.000000000000D+00
    8.000000000000D+01-1.209375000000D+01 5.552016978078D-09-3.740029213515D-01
   -5.587935447693D-07 1.242096303031D-02 8.990988135338D-06 5.153649757385D+03
    5.760000000000D+04-7.078051567078D-08 2.720289800315D+00 1.918524503708D-07
    9.268737070731D-01 1.861875000000D+02 9.385807821484D-01-8.611787286936D-09
    2.532248335450D-10 1.000000000000D+00 1.549000000000D+03 0.000000000000D+00
    2.800000000000D+00 0.000000000000D+00-4.656612873077D-09 8.000000000000D+01
    5.497200000000D+04 4.000000000000D+00
 7 09  9 13 15 59 44.0 1.154281198978D-05-6.821210263297D-13 0.000000000000D+00
    5.000000000000D+00-4.646875000000D+01 4.615549399016D-09-1.792889050671D+00
   -2.527609467506D-06 3.111089929007D-03 2.693384885788D-06 5.153651975632D+03
    5.758400000000D+04-3.166496753693D-08 7.422674309665D-01-1.490116119385D-08
    9.687063966811D-01 3.364375000000D+02 2.941150633061D+00-8.363562661670D-09
    1.067901625246D-10 1.000000000000D+00 1.549000000000D+03 0.000000000000D+00
    2.000000000000D+00 0.000000000000D+00-1.071020960808D-08 5.000000000000D+00
    5.509200000000D+04 4.000000000000D+00
31 09  9 13 15 59 44.0-6.440235301852D-05 3.410605131648D-13 0.000000000000D+00
    3.400000000000D+01-4.006250000000D+01 4.505901974618D-09-1.981605820831D+00
   -1.799315214157D-06 7.040035561658D-03 3.317371010780D-06 5.153784805298D+03
    5.758400000000D+04-8.195638656616D-08 7.406732306188D-01 1.285225152969D-07
    9.740442555958D-01 3.227187500000D+02-1.138963576439D+00-8.171768958406D-09
    9.107522222000D-11 1.000000000000D+00 1.549000000000D+03 0.000000000000D+00
    2.000000000000D+00 0.000000000000D+00-1.303851604462D-08 3.400000000000D+01
    5.598600000000D+04 4.000000000000D+00
29 09  9 13 15 59 44.0 5.711242556572D-05 3.410605131648D-12 0.000000000000D+00
    3.000000000000D+00-4.468750000000D+00 4.575190575052D-09-2.723832439309D+00
   -2.719461917877D-07 3.112546401098D-03 9.572133421898D-06 5.153612426758D+03
    5.758400000000D+04-2.235174179077D-08 2.863210190643D+00 5.960464477539D-08
    9.604925432269D-01 1.940625000000D+02-1.275012219228D+00-7.877113827695D-09
    2.721541934574D-10 1.000000000000D+00 1.549000000000D+03 0.000000000000D+00
    2.000000000000D+00 0.000000000000D+00-8.847564458847D-09 3.000000000000D+00
    5.607600000000D+04 4.000000000000D+00
16 09  9 13 18  0  0.0 1.310044899583D-05-3.865352482535D-12 0.000000000000D+00
    7.200000000000D+01-9.678125000000D+01 4.358752988129D-09-3.137187264511D+00
   -4.902482032776D-06 5.296443589032D-03 8.791685104370D-06 5.153622703552D+03
    6.480000000000D+04-7.636845111847D-08 1.812338150084D+00 3.352761268616D-08
    9.692160568591D-01 2.145937500000D+02-2.750970941896D-01-7.832469110920D-09
    9.750406143553D-11 1.000000000000D+00 1.549000000000D+03 0.000000000000D+00
    2.000000000000D+00 0.000000000000D+00-9.778887033463D-09 7.200000000000D+01
    5.761800000000D+04 4.000000000000D+00
25 09  9 13 18  0  0.0 5.929567851126D-04 1.489297574153D-11 0.000000000000D+00
    1.200000000000D+01-2.793750000000D+01 4.356252883990D-09-2.499763643727D+00
   -1.234933733940D-06 1.124009990599D-02 2.102926373482D-06 5.153645494461D+03
    6.480000000000D+04 7.450580596924D-09 6.479321431688D-01 1.378357410431D-07
    9.709150884535D-01 3.392187500000D+02-1.212339612045D+00-8.120338244682D-09
    1.607209803882D-10 1.000000000000D+00 1.549000000000D+03 0.000000000000D+00
    2.800000000000D+00 0.000000000000D+00-7.450580596924D-09 1.200000000000D+01
    5.761800000000D+04 4.000000000000D+00
13 09  9 13 18  0  0.0 3.045583143830D-04 4.547473508865D-13 0.000000000000D+00
    2.000000000000D+01 9.268750000000D+01 3.583720704924D-09 1.546947676809D+00
    4.796311259270D-06 4.008984193206D-03 5.492940545082D-06 5.153656389236D+03
    6.480000000000D+04 7.450580596924D-08-2.445264365704D-01-1.378357410431D-07
    9.947010114383D-01 2.903125000000D+02 1.660614009456D+00-7.832111953186D-09
    2.435815747217D-10 1.000000000000D+00 1.549000000000D+03 0.000000000000D+00
    2.000000000000D+00 0.000000000000D+00-1.117587089539D-08 2.000000000000D+01
    5.761800000000D+04 4.000000000000D+00
23 09  9 13 18  0  0.0 3.886092454195D-04-3.410605131648D-13 0.000000000000D+00
    3.100000000000D+01 8.737500000000D+01 4.152672975498D-09 8.671637445307D-01
    4.623085260391D-06 6.466889986768D-03 5.643814802170D-06 5.153574457169D+03
    6.480000000000D+04 2.067536115646D-07-2.991065042436D-01 1.359730958939D-07
    9.700508344881D-01 2.744375000000D+02 2.969937159678D+00-8.038191965817D-09
    1.753644474903D-10 1.000000000000D+00 1.549000000000D+03 0.000000000000D+00
    2.000000000000D+00 0.000000000000D+00-2.002343535423D-08 3.100000000000D+01
    5.761800000000D+04 4.000000000000D+00
 6 09  9 13 18  0  0.0 2.383710816503D-04 6.593836587854D-12 0.000000000000D+00
    1.070000000000D+02-3.187500000000D+00 5.313792769369D-09 3.016708142849D+00
   -1.490116119385D-08 5.844534491189D-03 9.335577487946D-06 5.153698604584D+03
    6.480000000000D+04 1.471489667892D-07 2.788690474940D+00 1.061707735062D-07
    9.343434472464D-01 1.818750000000D+02-1.256744598788D+00-8.241414716575D-09
    3.292994309288D-10 1.000000000000D+00 1.549000000000D+03 0.000000000000D+00
    2.000000000000D+00 0.000000000000D+00-5.122274160385D-09 1.070000000000D+02
    5.761800000000D+04 4.000000000000D+00
 3 09  9 13 18  0  0.0 4.467032849789D-04 5.115907697473D-12 0.000000000000D+00
    8.100000000000D+01-5.812500000000D+00 5.572374968927D-09 6.761729442887D-01
   -4.284083843231D-08 1.242223952431D-02 9.499490261078D-06 5.153652292252D+03
    6.480000000000D+04-1.136213541031D-07 2.720227908640D+00 1.173466444016D-07
    9.268754728153D-01 1.794062500000D+02 9.386072843723D-01-8.609644340531D-09
    2.153661137202D-10 1.000000000000D+00 1.549000000000D+03 0.000000000000D+00
    2.800000000000D+00 0.000000000000D+00-4.656612873077D-09 8.100000000000D+01
    5.761800000000D+04 4.000000000000D+00
 7 09  9 13 17 59 44.0 1.153815537691D-05-6.821210263297D-13 0.000000000000D+00
    6.000000000000D+00-4.596875000000D+01 4.498401662200D-09-7.424945241287D-01
   -2.453103661537D-06 3.111184225418D-03 2.527609467506D-06 5.153653137207D+03
    6.478400000000D+04-1.117587089539D-08 7.422071953146D-01-1.303851604462D-08
    9.687071837311D-01 3.315937500000D+02 2.940950062603D+00-8.369277185417D-09
    1.064330047904D-10 1.000000000000D+00 1.549000000000D+03 0.000000000000D+00
    2.000000000000D+00 0.000000000000D+00-1.071020960808D-08 6.000000000000D+00
    5.761800000000D+04 4.000000000000D+00
21 09  9 13 17 59 44.0-8.963514119387D-06-2.273736754432D-12 0.000000000000D+00
    3.000000000000D+01 8.781250000000D+00 5.369866533638D-09-1.697529900157D+00
    3.371387720108D-07 1.556140906177D-02 6.126239895821D-06 5.153747941971D+03
    6.478400000000D+04 1.434236764908D-07-2.383631899128D+00-2.067536115646D-07
    9.335735280904D-01 2.456562500000D+02-2.558980475603D+00-8.265344284766D-09
   -6.750281176306D-11 1.000000000000D+00 1.549000000000D+03 0.000000000000D+00
    2.000000000000D+00 0.000000000000D+00-1.210719347000D-08 3.000000000000D+01
    5.761800000000D+04 4.000000000000D+00
